ID,Address,Suburb,Price,Type,Date,Rooms,Bathroom,Car,LandSize,Age,Latitude,Longitude,train_station_id,distance_to_train_stat,travel_min_to_CBD,over_priced?,crime_A_average,crime_B_average,crime_C_average
ID752359351,76A Norfolk St,MAIDSTONE,650000.0,t,15/07/2017,2,2.0,1.0,279.0,6.0,-37.78799,144.87515,20022,1650.46,21.4,0,717.3333333333334,1763.0,318.6666666666667
ID975263609,1 Grout St,HAMPTON,1325000.0,h,24/06/2017,3,1.0,2.0,400.0,69.0,-37.93434,145.00816,19949,713.31,31.5,0,1841.6666666666667,9184.666666666666,533.3333333333334
ID494708645,275 Thompsons Rd,TEMPLESTOWE LOWER,1250000.0,h,23/09/2017,3,2.0,2.0,838.0,39.0,-37.76649000000001,145.10623,19935,4142.88,29.823529411764707,0,2532.3333333333335,5455.0,713.0
ID835438168,17 Delta Av,COBURG NORTH,1011000.0,h,29/07/2017,4,2.0,2.0,500.0,89.0,-37.72165,144.95853,19963,257.73,36.0,1,1097.6666666666667,5916.0,553.3333333333334
ID141559089,93 Hotham St,COLLINGWOOD,1430000.0,h,4/03/2017,2,1.0,0.0,231.0,119.0,-37.7969,144.9905,19975,428.92,13.235294117647058,0,1097.6666666666667,5916.0,553.3333333333334
ID952309416,208/11 Hillingdon Pl,PRAHRAN,550000.0,u,8/04/2017,1,1.0,1.0,0.0,119.0,-37.8516,144.9943,19958,453.87,13.5,0,705.3333333333334,5479.666666666667,335.0
ID484987492,1101/265 Exhibition St,MELBOURNE,895000.0,u,22/04/2017,3,2.0,3.0,0.0,13.0,-37.8095,144.9691,19843,377.17,6.100558659217877,0,313.3333333333333,545.3333333333334,65.66666666666667
ID592169244,88 Gladstone St,KEW,1410000.0,h,8/07/2017,3,1.0,1.0,404.0,89.0,-37.79893,145.04266,19931,2496.53,24.0,0,288.0,712.0,75.66666666666667
ID992170514,15 Murray St,ELSTERNWICK,3000000.0,h,18/03/2017,4,2.0,2.0,661.0,89.0,-37.8844,145.0117,19954,949.86,21.5,0,1666.0,9333.666666666666,523.0
ID231199641,12 Northumberland Rd,PASCOE VALE,815000.0,h,15/10/2016,3,1.0,2.0,628.0,64.0,-37.7295,144.9316,20034,330.73,31.0,0,923.3333333333334,7218.333333333333,438.0
ID188931311,1 Hodgson Tce,RICHMOND,1495000.0,h,27/11/2016,3,2.0,1.0,159.0,19.0,-37.8195,144.9974,19978,730.02,9.125,0,1118.3333333333333,2578.6666666666665,260.3333333333333
ID425461074,16 Hayes Pde,PASCOE VALE,950000.0,h,10/12/2016,5,2.0,2.0,705.0,69.0,-37.7328,144.9281,20034,227.69,31.0,0,923.3333333333334,7218.333333333333,438.0
ID419993980,6 Prefect St,STRATHMORE,1715000.0,h,18/06/2016,4,3.0,2.0,650.0,18.0,-37.7363,144.9208,20034,897.1,31.0,0,1862.3333333333333,8393.666666666666,831.3333333333334
ID518009132,17/24 Dongola Rd,WEST FOOTSCRAY,815000.0,t,8/04/2017,3,1.0,2.0,203.0,69.0,-37.7928,144.8811,20023,1069.46,19.4,0,298.0,735.0,154.0
ID820794818,33a Durrant St,BRIGHTON,1532000.0,h,22/08/2016,2,1.0,2.0,411.0,109.0,-37.9095,145.004,19952,527.9,24.5,0,3787.3333333333335,14549.666666666666,1179.6666666666667
ID591336016,2/15 Pryton Ct,BALWYN,825000.0,u,20/05/2017,2,2.0,2.0,288.0,3.0,-37.8078,145.1031,19896,1311.76,28.76923076923077,0,959.0,4476.666666666667,324.0
ID490478786,5 Murphy St,NORTH MELBOURNE,1485000.0,h,20/05/2017,3,1.0,1.0,198.0,51.0,-37.8029,144.9459,19973,541.43,6.25,0,84.33333333333333,293.3333333333333,23.0
ID223557742,314 Liberty Pde,HEIDELBERG WEST,580000.0,h,27/05/2017,3,1.0,2.0,429.0,69.0,-37.73704,145.03697,19936,2648.81,31.75,0,1173.6666666666667,8523.666666666666,974.6666666666666
ID882250288,2/65 Parkhill Rd,KEW,1375000.0,t,17/06/2017,3,3.0,3.0,325.0,79.0,-37.80506,145.05223999999995,19903,2010.35,17.904761904761905,0,288.0,712.0,75.66666666666667
ID177193591,77 Spenser St,ST KILDA,1900000.0,h,10/12/2016,3,2.0,2.0,289.0,40.0,-37.8726,144.9782,19956,1389.41,17.5,0,1862.3333333333333,8393.666666666666,831.3333333333334
ID775515671,1/43 Cameron St,AIRPORT WEST,752000.0,u,11/02/2017,3,1.0,1.0,265.0,26.0,-37.7302,144.8855,20033,3452.14,34.0,0,1214.6666666666667,5603.666666666667,375.3333333333333
ID610982919,92A Southern Rd,HEIDELBERG HEIGHTS,510000.0,h,25/02/2017,2,1.0,2.0,244.0,7.0,-37.7421,145.0491,19936,1502.49,31.75,0,1173.6666666666667,8523.666666666666,974.6666666666666
ID952322245,12 Longfield St,RICHMOND,1540000.0,h,25/02/2017,3,1.0,1.0,0.0,119.0,-37.8214,145.0119,19906,784.98,11.904761904761905,1,885.0,1901.0,227.66666666666666
ID292029163,364 Station St,CHELSEA,750000.0,h,29/07/2017,3,1.0,2.0,463.0,8.0,-38.05635,145.11836,19860,529.74,56.15384615384615,0,5.0,73.0,1.0
ID184975727,3/19 Chandos St,COBURG,515000.0,u,27/06/2016,2,1.0,2.0,0.0,49.0,-37.7474,144.9608,19965,605.38,32.0,0,1460.3333333333333,7810.666666666667,676.6666666666666
ID130244458,2/1 Lillimur Rd,ORMOND,960000.0,u,13/05/2017,3,2.0,2.0,199.0,24.0,-37.9034,145.0409,19941,114.93,32.15384615384615,0,298.0,735.0,154.0
ID252696593,13/37 Greville St,PRAHRAN,342000.0,u,3/09/2016,1,1.0,1.0,0.0,59.0,-37.8486,144.9872,19958,255.18,13.5,0,923.3333333333334,7218.333333333333,438.0
ID117276266,31 Tuxen St,BALWYN NORTH,2900000.0,h,18/06/2016,3,2.0,2.0,917.0,6.0,-37.7968,145.0873,19896,2985.73,28.76923076923077,0,1242.3333333333333,6182.333333333333,410.0
ID819018289,39 Barry St,NORTHCOTE,1710000.0,h,4/06/2016,3,1.0,1.0,247.0,129.0,-37.7798,144.9952,20017,292.73,19.3,0,184.0,440.6666666666667,48.666666666666664
ID305402476,27 Davey St,SUNSHINE WEST,687000.0,h,12/11/2016,3,1.0,1.0,695.0,69.0,-37.7853,144.8114,20020,847.75,21.333333333333332,0,3304.6666666666665,7186.666666666667,857.0
ID303620238,56 Asling St,BRIGHTON,1990000.0,t,22/04/2017,3,2.0,2.0,0.0,84.0,-37.901,145.0026,19952,432.71,24.5,0,2897.3333333333335,11243.0,942.0
ID406593707,7 Prospect Gr,NORTHCOTE,2100000.0,h,12/11/2016,4,1.0,2.0,0.0,6.0,-37.7736,145.0004,20016,613.2,21.3,0,184.0,440.6666666666667,48.666666666666664
ID766187642,2/8 Evelina St,BALWYN,1400000.0,t,12/11/2016,4,3.0,2.0,241.0,10.0,-37.8042,145.1042,19896,1699.01,28.76923076923077,0,1242.3333333333333,6182.333333333333,410.0
ID711167132,132 Wonga Rd,RINGWOOD,1085000.0,h,24/06/2017,3,2.0,2.0,921.0,39.0,-37.78649,145.24836000000005,19879,2840.71,41.642857142857146,0,394.3333333333333,1153.6666666666667,165.33333333333334
ID778504623,68 Osborne St,WILLIAMSTOWN,1710000.0,h,27/11/2016,3,2.0,1.0,260.0,3.0,-37.8671,144.9001,19991,464.73,23.857142857142858,0,1388.3333333333333,5449.666666666667,526.6666666666666
ID548655646,59b Fromer St,BENTLEIGH,1275000.0,t,17/09/2016,3,2.0,2.0,309.0,99.0,-37.9287,145.0461,19938,1013.62,36.84615384615385,0,1242.3333333333333,6182.333333333333,410.0
ID444424362,15 Grandview Rd,CHADSTONE,1460000.0,h,27/11/2016,3,1.0,1.0,705.0,18.0,-37.8746,145.1071,19847,2510.87,31.666666666666668,0,2103.0,8525.0,661.3333333333334
ID648318046,7 Francis St,ASCOT VALE,1380000.0,h,4/03/2017,3,2.0,2.0,277.0,109.0,-37.7777,144.9221,20039,267.61,20.0,0,2494.6666666666665,11307.0,1410.0
ID358598791,344 High St,WINDSOR,2302000.0,h,4/03/2017,3,1.0,4.0,440.0,124.0,-37.8528,144.9994,19957,741.72,15.5,0,1064.6666666666667,4200.666666666667,432.6666666666667
ID346254688,36 The Crescent,KENSINGTON,975000.0,h,15/10/2016,4,3.0,1.0,0.0,104.0,-37.7941,144.91899999999995,20026,830.22,6.4,0,369.3333333333333,971.0,95.33333333333333
ID693708765,5 Luckins Rd,BENTLEIGH,1165000.0,h,18/06/2016,3,1.0,2.0,694.0,69.0,-37.9315,145.0445,19937,751.86,38.266666666666666,0,1242.3333333333333,6182.333333333333,410.0
ID615757089,8 Wildberry Cl,CROYDON HILLS,905000.0,h,27/05/2017,4,2.0,2.0,731.0,34.0,-37.78021,145.26367,19878,2256.27,45.76923076923077,0,294.6666666666667,840.6666666666666,110.66666666666667
ID805269820,2 Tasman Ct,CARRUM DOWNS,615000.0,h,26/08/2017,3,2.0,2.0,804.0,26.0,-38.09187,145.19463000000005,19857,5971.92,63.81818181818182,0,990.0,3070.0,411.0
ID788882656,6/524 Moreland Rd,BRUNSWICK WEST,400000.0,u,10/12/2016,2,1.0,1.0,73.0,59.0,-37.7528,144.9368,20035,1322.0,29.0,1,1263.6666666666667,7774.0,843.0
ID324067814,106/37 Palmerston St,CARLTON,620000.0,u,1/07/2017,2,2.0,1.0,0.0,6.0,-37.7969,144.9742,19843,1579.66,6.100558659217877,0,101.33333333333333,253.66666666666666,33.0
ID476875685,94 Davies St,BRUNSWICK,1385000.0,h,13/05/2017,4,2.0,4.0,650.0,69.0,-37.7575,144.9716,19966,923.62,30.0,0,941.3333333333334,5813.0,575.6666666666666
ID945773098,5/14 Athelstane Gr,IVANHOE,500000.0,u,19/11/2016,2,1.0,1.0,71.0,59.0,-37.7634,145.0406,19933,744.78,26.058823529411764,0,771.3333333333334,1545.3333333333333,210.33333333333334
ID205944781,20A Apsley St,GLENROY,820000.0,h,29/07/2017,3,1.0,4.0,650.0,69.0,-37.70768,144.92586,20032,837.5,36.0,0,1841.6666666666667,9184.666666666666,533.3333333333334
ID722840876,5 Konrad St,BENTLEIGH EAST,1040000.0,h,27/11/2016,3,1.0,2.0,625.0,23.0,-37.927,145.0645,19938,2557.36,36.84615384615385,0,1242.3333333333333,6182.333333333333,410.0
ID993601202,45/151 Fitzroy St,ST KILDA,600000.0,u,29/07/2017,2,1.0,1.0,0.0,89.0,-37.85911,144.97899999999996,19957,1195.12,15.5,1,1412.0,6364.0,699.3333333333334
ID192049726,124 Westgarth St,FITZROY,1481000.0,h,13/08/2016,3,2.0,1.0,138.0,119.0,-37.795,144.9806,19975,1303.34,13.235294117647058,0,444.3333333333333,2256.0,119.66666666666667
ID978985696,241 Buckley St,ABERFELDIE,1380000.0,h,12/08/2017,4,2.0,2.0,766.0,139.0,-37.75595,144.90551000000005,20037,940.63,24.0,0,817.6666666666666,1779.6666666666667,181.0
ID911857628,1/150 Peel St,NORTH MELBOURNE,541000.0,u,15/07/2017,2,1.0,1.0,0.0,15.0,-37.8044,144.95657,19842,812.89,4.7444444444444445,0,84.33333333333333,293.3333333333333,23.0
ID894511074,25 Myrniong Gr,HAWTHORN EAST,3750000.0,h,6/05/2017,5,3.0,4.0,858.0,59.0,-37.8395,145.0534,19853,1513.1,19.15625,0,1253.6666666666667,7401.333333333333,484.6666666666667
ID801689015,11 Young St,GLEN IRIS,1910000.0,h,12/08/2017,3,2.0,1.0,348.0,59.0,-37.86014,145.04221,19944,1323.46,20.8,0,2047.6666666666667,9171.0,742.3333333333334
ID241224254,54b Napier St,SOUTH MELBOURNE,612000.0,u,14/05/2016,2,1.0,1.0,0.0,109.0,-37.8346,144.9673,19854,1814.14,3.1806451612903226,0,1568.6666666666667,4937.333333333333,608.0
ID246345423,60 Arden St,NORTH MELBOURNE,1475000.0,h,12/08/2017,4,2.0,1.0,137.0,3.0,-37.80072,144.9496,19973,945.23,6.25,0,84.33333333333333,293.3333333333333,23.0
